ONEWEB-0228             
1 48780U 21045P   23238.59268809 -.00000042  00000+0 -14614-3 0  9990
2 48780  87.8965 103.4131 0001760  87.4357 272.6974 13.15546442109487
